1 25544U 98067A   23315.85010711  .00025310  00000+0  46209-3 0  9991
2 25544  51.6414 317.1241 0001158 299.9752 118.6396 15.49246763424696
1 25544U 98067A   23316.11698406  .00020709  00000+0  37971-3 0  9997
2 25544  51.6415 315.8027 0000998 293.1941 174.8489 15.49252107424732
1 25544U 98067A   23316.24385044  .00017655  00000+0  32502-3 0  9993
2 25544  51.6415 315.1745 0000999 292.1061 163.9708 15.49252079424758
1 25544U 98067A   23316.51037694  .00017666  00000+0  32511-3 0  9990
2 25544  51.6421 313.8559 0000976 293.6950 209.8682 15.49261748424799
1 25544U 98067A   23316.51037694  .00017784  00000+0  32722-3 0  9995
2 25544  51.6418 313.8554 0001004 293.4527 210.1111 15.49261995424797
1 25544U 98067A   23316.88461935  .00016794  00000+0  30940-3 0  9994
2 25544  51.6431 312.0044 0001174 299.6542 132.5635 15.49271298424852
1 25544U 98067A   23317.14766389  .00013761  00000+0  25506-3 0  9998
2 25544  51.6424 310.7012 0001101 292.0625 168.2140 15.49273180424896
1 25544U 98067A   23317.27612380  .00073364  00000+0  13139-2 0  9996
2 25544  51.6424 310.0646 0000891 272.2249 184.9991 15.49291698424915
1 25544U 98067A   23317.34038491  .00074866  00000+0  13399-2 0  9995
2 25544  51.6422 309.7461 0000971 284.2478 171.6256 15.49301942424921
1 25544U 98067A   23317.38772625  .00015358  00000+0  28357-3 0  9995
2 25544  51.6409 309.5155 0001085 285.4767  74.6101 15.49282274424933
1 25544U 98067A   23317.45222967  .00013857  00000+0  25670-3 0  9999
2 25544  51.6409 309.1962 0001088 284.4113  75.6755 15.49282524424936
1 25544U 98067A   23317.47667927  .00014097  00000+0  26098-3 0  9992
2 25544  51.6425 309.0725 0001032 292.1707 204.3705 15.49283526424944
1 25544U 98067A   23317.47667927  .00014185  00000+0  26255-3 0  9995
2 25544  51.6432 309.0741 0001011 289.8192 206.7216 15.49283803424949
1 25544U 98067A   23317.91882772  .00014681  00000+0  27130-3 0  9995
2 25544  51.6433 306.8851 0001022 295.5013 148.7314 15.49298583425019
1 25544U 98067A   23318.17700966  .00014852  00000+0  27428-3 0  9998
2 25544  51.6432 305.6070 0001026 294.3429 150.8504 15.49307096425059
1 25544U 98067A   23318.25782407  .00008141  00000+0  15414-3 0  9993
2 25544  51.6420 305.2037 0001506 297.5407 238.6899 15.49302424425062
1 25544U 98067A   23318.38141381  .00015706  00000+0  28947-3 0  9997
2 25544  51.6442 304.5967 0001063 297.2284 208.7871 15.49315489425083
1 25544U 98067A   23318.48427184  .00013135  00000+0  24348-3 0  9991
2 25544  51.6410 304.0884 0001089 292.1795  67.9078 15.49315148425097
1 25544U 98067A   23318.50989808  .00015161  00000+0  27969-3 0  9993
2 25544  51.6429 303.9579 0000883 289.3004 213.8193 15.49318641425101
1 25544U 98067A   23318.88609766  .00015202  00000+0  28031-3 0  9993
2 25544  51.6429 302.0956 0000875 293.6732 149.1107 15.49330478425161
1 25544U 98067A   23319.14725025  .00013176  00000+0  24406-3 0  9990
2 25544  51.6430 300.8040 0001013 301.9962 158.3389 15.49332840425200
1 25544U 98067A   23319.28190676  .00026094  00000+0  47454-3 0  9994
2 25544  51.6432 300.1406 0001457 313.2419 178.6434 15.49341007425229
1 25544U 98067A   23319.34820770  .00026054  00000+0  47374-3 0  9993
2 25544  51.6430 299.8121 0001349 311.1125 190.8217 15.49345539425236
1 25544U 98067A   23319.45179492  .00012026  00000+0  22345-3 0  9998
2 25544  51.6409 299.2999 0001077 296.2170  63.8708 15.49339763425247
1 25544U 98067A   23319.53465485  .00014606  00000+0  26950-3 0  9999
2 25544  51.6431 298.8848 0000798 288.3336 174.2333 15.49347168425266
1 25544U 98067A   23319.78559582  .00014454  00000+0  26671-3 0  9999
2 25544  51.6430 297.6425 0000959 302.8059 120.3429 15.49353769425303
1 25544U 98067A   23319.85264109  .00014447  00000+0  26658-3 0  9992
2 25544  51.6430 297.3106 0000954 302.9038 134.4487 15.49355717425315
1 25544U 98067A   23319.91025964  .00014444  00000+0  26651-3 0  9993
2 25544  51.6430 297.0253 0000952 303.1517  95.7911 15.49357417425329
1 25544U 98067A   23320.11389485  .00012480  00000+0  23143-3 0  9999
2 25544  51.6431 296.0189 0000918 307.4636 148.0261 15.49356449425355
1 25544U 98067A   23320.24864744  .00012127  00000+0  22510-3 0  9994
2 25544  51.6426 295.3531 0000857 296.1061 191.4884 15.49359097425377
