OBJECT_NAME,OBJECT_ID,EPOCH,MEAN_MOTION,ECCENTRICITY,INCLINATION,RA_OF_ASC_NODE,ARG_OF_PERICENTER,MEAN_ANOMALY,EPHEMERIS_TYPE,CLASSIFICATION_TYPE,NORAD_CAT_ID,ELEMENT_SET_NO,REV_AT_EPOCH,BSTAR,MEAN_MOTION_DOT,MEAN_MOTION_DDOT
ISS (ZARYA),1998-067A,2023-11-11T20:24:09.254304,15.49246763,.0001158,51.6414,317.1241,299.9752,118.6396,0,U,25544,999,42469,.46209E-3,.2531E-3,0
ISS (ZARYA),1998-067A,2023-11-12T02:48:27.422784,15.49252107,.0000998,51.6415,315.8027,293.1941,174.8489,0,U,25544,999,42473,.37971E-3,.20709E-3,0
ISS (ZARYA),1998-067A,2023-11-12T05:51:08.678016,15.49252079,.0000999,51.6415,315.1745,292.1061,163.9708,0,U,25544,999,42475,.32502E-3,.17655E-3,0
ISS (ZARYA),1998-067A,2023-11-12T12:14:56.567616,15.49261748,.0000976,51.6421,313.8559,293.6950,209.8682,0,U,25544,999,42479,.32511E-3,.17666E-3,0
ISS (ZARYA),1998-067A,2023-11-12T12:14:56.567616,15.49261995,.0001004,51.6418,313.8554,293.4527,210.1111,0,U,25544,999,42479,.32722E-3,.17784E-3,0
ISS (ZARYA),1998-067A,2023-11-12T21:13:51.111840,15.49271298,.0001174,51.6431,312.0044,299.6542,132.5635,0,U,25544,999,42485,.3094E-3,.16794E-3,0
ISS (ZARYA),1998-067A,2023-11-13T03:32:38.160096,15.49273180,.0001101,51.6424,310.7012,292.0625,168.2140,0,U,25544,999,42489,.25506E-3,.13761E-3,0
ISS (ZARYA),1998-067A,2023-11-13T06:37:37.096320,15.49291698,.0000891,51.6424,310.0646,272.2249,184.9991,0,U,25544,999,42491,.13139E-2,.73364E-3,0
ISS (ZARYA),1998-067A,2023-11-13T08:10:09.256224,15.49301942,.0000971,51.6422,309.7461,284.2478,171.6256,0,U,25544,999,42492,.13399E-2,.74866E-3,0
ISS (ZARYA),1998-067A,2023-11-13T09:18:19.548000,15.49282274,.0001085,51.6409,309.5155,285.4767,74.6101,0,U,25544,999,42493,.28357E-3,.15358E-3,0
ISS (ZARYA),1998-067A,2023-11-13T10:51:12.643488,15.49282524,.0001088,51.6409,309.1962,284.4113,75.6755,0,U,25544,999,42493,.2567E-3,.13857E-3,0
ISS (ZARYA),1998-067A,2023-11-13T11:26:25.088928,15.49283526,.0001032,51.6425,309.0725,292.1707,204.3705,0,U,25544,999,42494,.26098E-3,.14097E-3,0
ISS (ZARYA),1998-067A,2023-11-13T11:26:25.088928,15.49283803,.0001011,51.6432,309.0741,289.8192,206.7216,0,U,25544,999,42494,.26255E-3,.14185E-3,0
ISS (ZARYA),1998-067A,2023-11-13T22:03:06.715008,15.49298583,.0001022,51.6433,306.8851,295.5013,148.7314,0,U,25544,999,42501,.2713E-3,.14681E-3,0
ISS (ZARYA),1998-067A,2023-11-14T04:14:53.634624,15.49307096,.0001026,51.6432,305.6070,294.3429,150.8504,0,U,25544,999,42505,.27428E-3,.14852E-3,0
ISS (ZARYA),1998-067A,2023-11-14T06:11:15.999648,15.49302424,.0001506,51.6420,305.2037,297.5407,238.6899,0,U,25544,999,42506,.15414E-3,.8141E-4,0
ISS (ZARYA),1998-067A,2023-11-14T09:09:14.153184,15.49315489,.0001063,51.6442,304.5967,297.2284,208.7871,0,U,25544,999,42508,.28947E-3,.15706E-3,0
ISS (ZARYA),1998-067A,2023-11-14T11:37:21.086976,15.49315148,.0001089,51.6410,304.0884,292.1795,67.9078,0,U,25544,999,42509,.24348E-3,.13135E-3,0
ISS (ZARYA),1998-067A,2023-11-14T12:14:15.194112,15.49318641,.0000883,51.6429,303.9579,289.3004,213.8193,0,U,25544,999,42510,.27969E-3,.15161E-3,0
ISS (ZARYA),1998-067A,2023-11-14T21:15:58.837824,15.49330478,.0000875,51.6429,302.0956,293.6732,149.1107,0,U,25544,999,42516,.28031E-3,.15202E-3,0
ISS (ZARYA),1998-067A,2023-11-15T03:32:02.421600,15.49332840,.0001013,51.6430,300.8040,301.9962,158.3389,0,U,25544,999,42520,.24406E-3,.13176E-3,0
ISS (ZARYA),1998-067A,2023-11-15T06:45:56.744064,15.49341007,.0001457,51.6432,300.1406,313.2419,178.6434,0,U,25544,999,42522,.47454E-3,.26094E-3,0
ISS (ZARYA),1998-067A,2023-11-15T08:21:25.145280,15.49345539,.0001349,51.6430,299.8121,311.1125,190.8217,0,U,25544,999,42523,.47374E-3,.26054E-3,0
ISS (ZARYA),1998-067A,2023-11-15T10:50:35.081088,15.49339763,.0001077,51.6409,299.2999,296.2170,63.8708,0,U,25544,999,42524,.22345E-3,.12026E-3,0
ISS (ZARYA),1998-067A,2023-11-15T12:49:54.179040,15.49347168,.0000798,51.6431,298.8848,288.3336,174.2333,0,U,25544,999,42526,.2695E-3,.14606E-3,0
ISS (ZARYA),1998-067A,2023-11-15T18:51:15.478848,15.49353769,.0000959,51.6430,297.6425,302.8059,120.3429,0,U,25544,999,42530,.26671E-3,.14454E-3,0
ISS (ZARYA),1998-067A,2023-11-15T20:27:48.190176,15.49355717,.0000954,51.6430,297.3106,302.9038,134.4487,0,U,25544,999,42531,.26658E-3,.14447E-3,0
ISS (ZARYA),1998-067A,2023-11-15T21:50:46.432896,15.49357417,.0000952,51.6430,297.0253,303.1517,95.7911,0,U,25544,999,42532,.26651E-3,.14444E-3,0
ISS (ZARYA),1998-067A,2023-11-16T02:44:00.515040,15.49356449,.0000918,51.6431,296.0189,307.4636,148.0261,0,U,25544,999,42535,.23143E-3,.1248E-3,0
ISS (ZARYA),1998-067A,2023-11-16T05:58:03.138816,15.49359097,.0000857,51.6426,295.3531,296.1061,191.4884,0,U,25544,999,42537,.2251E-3,.12127E-3,0
